#dP2021  2 20 12  0  0.00000000      96 __u+U ITR00 EXT  IAC
## 2145 561600.00000000   900.00000000 59265 0.5000000000000
+  116   C06C07C08C09C10C11C12C13C14C16C19C20C21C22C23C24C25
+        C26C27C28C29C30C32C33C34C35C36C37C38C39C40C41C42C43
+        C44C45C46E01E02E03E04E05E07E08E09E11E12E13E14E15E18
+        E19E21E24E25E26E27E30E31E33E36G01G02G03G04G05G06G07
+        G08G09G10G11G13G14G15G16G17G18G19G20G21G22G23G24G25
+        G26G27G28G29G30G31G32J01J02J03R01R02R03R04R05R07R08
+        R09R11R12R13R14R15R16R17R18R19R20R21R22R24  0  0  0
++        11 11  8 12  9  9  8 10 10 10 11  7 10  9 10  9 11
++         9  8  9  9  8  8  8  9  8  8  9 10 11 10  9  7  9
++         9 11  9  6  8  8  8  8  7  8  8  8  9  7  7  8  8
++         7  7  8  7  7  8  8  7  7  8  8  7  7  6  8  8  7
++         8  7  7  7  7  7  7  8  7  7  8  7  8  7  8  8  7
++         7  7  7  8  7  7  8  9  9 10  9  8 10  8  9  8  8
++         8  9  8  7  8  7  9  8  8  9  8  8  6  8  0  0  0
%c M  cc GPS ccc cccc cccc cccc cccc ccccc ccccc ccccc ccccc
%c cc cc ccc ccc cccc cccc cccc cccc ccccc ccccc ccccc ccccc
%f  0.0000000  0.000000000  0.00000000000  0.000000000000000
%f  0.0000000  0.000000000  0.00000000000  0.000000000000000
%i    0    0    0    0      0      0      0      0         0
%i    0    0    0    0      0      0      0      0         0
/* IAC                                ULTRA-RAPID PREDICTION
/* S/V CLOCKS ARE ALIGNED TO GNSS TIME                      
/* G:C1WC2W R:C1PC2P E:C1XC5X C:C2IC6I J:C1CC2S             
/* PCV:IGS14_2134 OL/AL:FES2004  NONE     YN ORB:CoN CLK:CoN
*  2021 02 20 17 45  0.00000000
PC06 -20981.348645  36611.909745  -3873.593808    109.263931
PC07  -8404.917920  29769.971279 -28182.153441   -345.822007
PC08 -19439.400734  18438.328565  32549.431937   -910.818291
PC09 -10941.306311  36691.522626 -17847.471097    719.697722
PC10   3790.828195  36548.799431 -20080.611908    -83.263591
PC11 -14460.129468  22773.660996   7135.056153   -911.736302
PC12 -21725.045680  13977.261354 -10496.688965    811.917299
PC13  -2657.061897  22714.977361  35520.414359    149.838568
PC14  -3985.520457  22500.470787  16008.080199    182.541790
PC16 -18672.896735  37337.366778  -6630.552768   -703.728811
PC19  -3360.171261 -26518.818192  -8011.816845    735.051684
PC20   9478.848841 -16210.675066 -20633.965853   -917.910888
PC21 -17269.012031  -4369.222006  21504.266754   -847.853668
PC22 -14571.750334 -21790.298287   9612.499661   -887.111848
PC23  20185.122796  13887.573234 -13368.324572   -875.914198
PC24 -19135.620473   9278.363261 -18067.042285   -764.822622
PC25   1891.654849  16560.419206 -22391.922893   -940.434328
PC26 -27519.752865  -1967.043945  -4065.755080    945.718074
PC27  21009.624388  -5156.692573  17601.819621    486.577566
PC28  10020.383102  12467.961417  22872.174730   -107.175374
PC29   5926.374666 -22970.673919 -14694.276929    355.078396
PC30  19110.197985 -20160.276682   2518.343963    446.518968
PC32  17295.453152   4237.341649 -21468.318619   -897.917940
PC33   3392.851706  26475.003875   8125.089794   -957.763605
PC34 -18894.460604  20474.028063  -1857.098852   -735.552151
PC35 -10280.582989 -12379.376047 -22797.038784   -408.789600
PC36  -1086.281099 -16555.018754  22455.950346   -752.659398
PC37  27545.672753   3182.664452   3260.551068   -866.996742
PC38 -16920.109132  21470.190311  32099.525254    131.274634
PC39 -15828.916208  38540.245519  -6924.664530     28.647081
PC40    -57.437011  34546.729266 -24066.225955    133.546344
PC41  14507.533900  21935.101448  -9299.303604   -929.837190
PC42  -9991.348390  15563.837351  20937.322028   -882.866316
PC43  -6417.362204  23111.740663  14282.788324   -606.736269
PC44 -20877.697146   5625.787926 -17665.596316     48.733343
PC45 -20262.084175 -13740.910374  13367.728742    367.398934
PC46  18424.004424  -9690.000454  18604.127642    396.322615
PE01  -4276.678110  17016.090883 -23844.855121  -1050.265570
PE02   4189.759088 -17058.828140  23815.836627    199.833931
PE03   8434.981652 -27638.755741  -6442.586866   -400.822446
PE04   4646.499630  26785.232572 -11708.550807   -713.872237
PE05  16762.670755 -12270.863480 -21084.903756   -302.959745
PE07 -15233.066857 -10101.278877  23288.469098   -503.396510
PE08  -4921.979886 -26605.210459  12016.916242   6044.068048
PE09  15199.189531   9812.862308 -23422.991829   5758.906529
PE11  23404.871837   2943.356084  17869.052939   6295.741026
PE12   5072.608833  15450.510863  24741.588588   5346.375730
PE13 -23156.569061  -3092.379541 -18170.416294    412.406646
PE14  10012.863128  12328.435191  17130.259793  -1336.717092
PE15  -5161.924604 -15324.537754 -24778.716278    828.334357
PE18 -14771.962425 -15907.697610 -24313.550666  -1461.336440
PE19  -9728.032771  26619.255680   8553.517517    208.706156
PE21 -20370.086579   2333.615852 -21350.719195   -649.551191
PE24  25011.487322  14792.593785   5704.328213   -754.075918
PE25  20493.663855  -2155.336797  21254.845600   -526.851894
PE26 -27389.159165  11227.271027   -161.768619   2125.617485
PE27 -25173.071834 -14195.541133  -6366.153112     25.752958
PE30 -14368.583741 -22414.145664  12901.364056   3165.414271
PE31  15161.325622  22277.441946 -12256.603874   -478.475430
PE33 -15844.817099  18528.326870  16807.861530   -465.867851
PE36  27495.673167 -10911.684523    918.128600    437.999953
PG01  -5224.386983 -14095.328980 -22162.999152    757.164765
PG02 -18097.219735  14442.615395  13695.195315   -578.866622
PG03 -11749.293586 -22532.351452  -7989.059677    -88.258799
PG04   -511.537941 -23134.744604  12992.370281   -181.558684
PG05  -4207.508438  16577.073194  20124.808855    -34.231679
PG06 -25879.149645   5837.415748   1870.567061     -2.202076
PG07 -19922.661890  -8302.121700  16127.733246     65.518336
PG08   4136.768638 -25308.811558  -6270.711916    -11.030109
PG09 -10001.802372 -14366.937723  19906.074641   -324.694539
PG10  20114.329070   6702.243248 -16052.036257    -65.677509
PG11   1791.000616 -19481.626107 -18566.391443    -19.170970
PG13 -13238.006164  22868.022586   1783.102536     99.445044
PG14 -20022.036231  -8551.371370 -15232.383863     98.018164
PG15   -850.288664  25546.203455  -6846.194453   -168.087006
PG16   7392.678697 -14161.765504  20888.485755   -283.048866
PG17 -16266.415747   3640.840273 -20245.704309    397.510661
PG18  21880.340649   6222.326084  13754.241309    348.128814
PG19 -17734.174270  11120.303122 -16574.656657    -35.922940
PG20  21839.407973  14526.911918  -5074.289535    524.598785
PG21   3600.237817 -15700.160087 -20305.670475     97.211515
PG22  -5505.990977 -21075.690549 -15113.414033   -675.399741
PG23  20409.113600  15389.074375  -7314.342251    118.403522
PG24     44.833770  16163.590945 -21274.278316      2.088389
PG25  17587.958028  20080.976444    743.964112     84.415834
PG26  15292.267760  -5773.742759  20924.931880     47.718109
PG27  12370.114524 -22485.412632   5886.744174    -80.118000
PG28 -18683.702733  -6721.231727 -16986.364048    612.756424
PG29   8193.333389  14848.992757  20388.909093   -298.566175
PG30 -26061.664240   -384.845087   5747.432347   -387.691727
PG31  25510.297152  -6962.977005   4352.464409   -101.261432
PG32  16687.593706  -5318.225778 -19819.395703     19.372004
PJ01 -25918.675202  25888.160921  25886.293668   -342.344155
PJ02 -26203.698625  15083.068614 -24913.098940      2.172803
PJ03 -27104.568018  32046.065301    656.771273     -0.913917
PR01 -11319.266846 -13193.806030  18674.668082     75.295464
PR02  -9104.994404   9501.876584  21903.885720    467.818417
PR03  -1660.223652  23231.904991  10505.965204     31.118806
PR04   6586.836260  23715.668499  -6685.260999     74.777752
PR05  11093.550489  11024.841182 -20147.682203     66.834706
PR07   1321.778534 -23464.074688  -9825.421052    -42.478448
PR08  -6702.555449 -23647.908131   6836.512383    -57.511257
PR09  18943.011461  -1672.260718  16977.753295    -20.772193
PR11 -14576.070244 -13563.910951  15955.583771      3.011704
PR12 -23868.538804  -8909.168567   -916.498003    206.612569
PR13 -19249.942417   1203.350975 -16711.349984    -50.992628
PR14  -2887.749775  10756.602882 -22942.059779     61.213473
PR15  14679.984588  13834.910860 -15603.262128    105.298718
PR16  24237.983465   7966.078197   1817.283966    -11.569352
PR17 -13902.562124  17764.435865  11890.877680    401.755934
PR18    397.480509  12384.602618  22325.820422     67.309765
PR19  14098.812521   1322.393442  21220.929929   -132.808449
PR20  21424.675409 -12386.928608   6092.280718   -433.785603
PR21  13206.859493 -17630.201280 -12874.413818   -189.109821
PR22  -1490.169051 -11612.368046 -22656.453353    -98.890641
PR24 -21296.144420  12998.847211  -5268.575001     32.290383
EOF
